RADUGA 1 [-]            
1 08513U 75123A   22352.89790567  .00000015  00000+0  00000+0 0  9994
2 08513   6.0869 286.0304 0006948 223.7495 327.8791  1.00288392182012
RADUGA 2 [-]            
1 09416U 76092A   22353.77531657 -.00000151  00000+0  00000+0 0  9996
2 09416   6.7491 288.0310 0027614   1.5952 162.3656  1.00286603116556
RADUGA 3 [-]            
1 10159U 77071A   22353.90369208 -.00000035  00000+0  00000+0 0  9997
2 10159   7.3661 290.6703 0008899 244.5490 313.3144  1.00186982164263
RADUGA 4 [-]            
1 10987U 78073A   22353.97133212  .00000106  00000+0  00000+0 0  9998
2 10987   7.9960 294.2397 0008753 359.8951 198.4514  1.00335681106801
RADUGA 5 [-]            
1 11343U 79035A   22353.83288985 -.00000093  00000+0  00000+0 0  9993
2 11343   8.4581 297.0462 0006072 176.6659 353.4434  1.00248743116569
RADUGA 6 [-]            
1 11708U 80016A   22353.73372527 -.00000209  00000+0  00000+0 0  9993
2 11708   8.8234 300.1685 0002560 212.3498 289.1218  1.00336431109371
RADUGA 7 [-]            
1 12003U 80081A   22353.66867102 -.00000165  00000+0  00000+0 0  9995
2 12003   9.0105 302.1468 0009960 270.1411  91.5066  1.00268253110520
RADUGA 8 [-]            
1 12351U 81027A   22354.57633216 -.00000223  00000+0  00000+0 0  9995
2 12351   9.3405 302.7110 0081821 233.2845 262.8533  1.00355828109737
RADUGA 9 [-]            
1 12618U 81069A   22353.89355160 -.00000182  00000+0  00000+0 0  9994
2 12618   9.5682 305.7375 0003158 157.0601  32.7318  1.00353114115545
RADUGA 10 [-]           
1 12897U 81102A   22353.77602380 -.00000163  00000+0  00000+0 0  9996
2 12897   9.6553 306.7331 0005306 187.1492 318.9719  1.00265886104555
RADUGA 11 [-]           
1 13669U 82113A   22353.84143203 -.00000110  00000+0  00000+0 0  9991
2 13669  11.7321 320.6239 0038493 257.9633 295.5807  0.97709102109077
RADUGA 12 [-]           
1 13974U 83028A   22353.77440941 -.00000065  00000+0  00000+0 0  9996
2 13974  10.8241 316.5980 0001480 101.6604  22.3433  1.00295097156591
RADUGA 13 [-]           
1 14307U 83088A   22352.96824781  .00000005  00000+0  00000+0 0  9994
2 14307  11.9886 322.1671 0015119  42.2745 131.3440  0.98172527106412
RADUGA 14 [-]           
1 14725U 84016A   22353.82010182 -.00000144  00000+0  00000+0 0  9993
2 14725  11.0422 320.4070 0004309 144.0939   1.5483  1.00251233105311
RADUGA 15 [-]           
1 15057U 84063A   22353.84256516 -.00000330  00000+0  00000+0 0  9996
2 15057  11.1670 321.3931 0005139 163.9848  34.7960  1.00255027128298
RADUGA 16 [-]           
1 15946U 85070A   22353.64234719  .00000135  00000+0  00000+0 0  9993
2 15946  11.6476 326.0911 0001857 177.6221  18.8124  1.00332190109431
RADUGA 17 [-]           
1 16250U 85107A   22354.10338262  .00000072  00000+0  00000+0 0  9993
2 16250  11.7741 327.4954 0013295 189.2603 200.2746  1.00134269139033
RADUGA 18 [-]           
1 16497U 86007A   22354.27757799 -.00000217  00000+0  00000+0 0  9996
2 16497  12.5898 330.2194 0074797 168.8652  15.8627  0.98814419133318
RADUGA 19 [-]           
1 17046U 86082A   22353.62576000 -.00000204  00000+0  00000+0 0  9998
2 17046  13.0353 334.1809 0012898 154.3498 323.6817  0.98461840130357
RADUGA 20 [-]           
1 17611U 87028A   22353.64034240 -.00000121  00000+0  00000+0 0  9992
2 17611  15.0609 337.6830 0030399 142.4279  31.2920  0.95961809126072
RADUGA 21 [-]           
1 18631U 87100A   22353.57417719  .00000092  00000+0  00000+0 0  9990
2 18631  13.1303 334.9692 0003324 138.5386  42.2384  1.00336847128291
RADUGA 22 [-]           
1 19596U 88095A   22353.83430660 -.00000270  00000+0  00000+0 0  9993
2 19596  13.1303 339.3071 0007362 145.4377   1.9312  1.00170581108916
RADUGA 23 [-]           
1 19928U 89030A   22353.04233802 -.00000078  00000+0  00000+0 0  9990
2 19928  13.2888 341.1361 0021487 168.2672  25.0026  1.00365049122057
RADUGA-1 1 [-]          
1 20083U 89048A   22353.82202269 -.00000219  00000+0  00000+0 0  9999
2 20083  14.0535 344.2129 0022325 119.2267  53.5356  0.98710070118683
RADUGA 24 [-]           
1 20367U 89098A   22354.06854951  .00000123  00000+0  00000+0 0  9990
2 20367  13.8729 343.3678 0001961 152.0964  23.9171  1.00250857120248
RADUGA 25 [-]           
1 20499U 90016A   22354.02864712 -.00000081  00000+0  00000+0 0  9994
2 20499  13.6444 344.0430 0004975 151.0098 219.0598  1.00164607120164
RADUGA 26 [-]           
1 21016U 90112A   22353.77906883 -.00000188  00000+0  00000+0 0  9992
2 21016  13.9748 347.2971 0007013  97.6800   7.9083  1.00317783117475
RADUGA-1 2 [-]          
1 21038U 90116A   22353.55952206  .00000060  00000+0  00000+0 0  9994
2 21038  14.0142 347.3689 0008390 107.0949 251.3342  1.00311909 34548
RADUGA 27 [-]           
1 21132U 91014A   22354.13729854  .00000140  00000+0  00000+0 0  9992
2 21132  14.5213 346.8661 0003076 104.3425  77.5266  1.00329633116510
RADUGA 28 [-]           
1 21821U 91087A   22353.04120488  .00000008  00000+0  00000+0 0  9997
2 21821  14.3060 350.6435 0007115 131.8480  45.6193  1.00184644113523
RADUGA 29 [-]           
1 22557U 93013A   22354.05049183 -.00000093  00000+0  00000+0 0  9994
2 22557  14.5335 354.8068 0007024 118.3056  65.8745  1.00385226108905
RADUGA 30 [-]           
1 22836U 93062A   22354.05518087 -.00000051  00000+0  00000+0 0  9996
2 22836  14.5834 356.7888 0001263 343.5413 198.6450  1.00263753106982
RADUGA-1 3 [-]          
1 22981U 94008A   22354.04771513 -.00000131  00000+0  00000+0 0  9991
2 22981  14.6667 357.9360 0003313 114.6431  73.3325  1.00215610105721
RADUGA 31 [-]           
1 23010U 94012A   22353.78226803 -.00000192  00000+0  00000+0 0  9994
2 23010  14.6370 357.9356 0005318 100.8309 355.0667  1.00337048105560
RADUGA 32 [-]           
1 23448U 94087A   22353.55396757 -.00000062  00000+0  00000+0 0  9998
2 23448  14.6333   0.6583 0005275 205.7743 152.7566  1.00264045120087
RADUGA-1 4 [-]          
1 25642U 99010A   22354.11585163  .00000028  00000+0  00000+0 0  9992
2 25642  15.2616  12.1848 0002684 246.7273 290.5836  1.00347519 87184
RADUGA-1 5 [-]          
1 26477U 00049A   22353.80117845  .00000062  00000+0  00000+0 0  9994
2 26477  13.2345  17.1863 0004699  67.4431 347.9809  1.00325050 81707
RADUGA-1 6 [-]          
1 26936U 01045A   22353.71791925 -.00000063  00000+0  00000+0 0  9990
2 26936  13.4336  23.5428 0016382 169.2945  16.1268  0.97744172 76118
RADUGA-1 7 [-]          
1 28194U 04010A   22353.79699708 -.00000300  00000+0  00000+0 0  9991
2 28194  12.1824  30.3391 0002289 187.7185 259.4851  1.00183481 68634
RADUGA-1M 1 [-]         
1 32373U 07058A   22354.09737265 -.00000243  00000+0  00000+0 0  9991
2 32373   7.3071  62.7507 0001102 332.7527  54.9645  0.99399651 55642
RADUGA-1 8 [-]          
1 34264U 09010A   22352.91786646 -.00000130  00000+0  00000+0 0  9993
2 34264   9.5886  52.6913 0013490   4.0339 168.0334  0.99832787 50439
RADUGA-1M 2 [+]         
1 36358U 10002A   22354.54702082 -.00000157  00000+0  00000+0 0  9994
2 36358   0.3160  99.0032 0002060 235.1505  36.8887  1.00271869 47239
RADUGA-1M 3 [+]         
1 39375U 13062A   22354.18271116  .00000181  00000+0  00000+0 0  9990
2 39375   2.7039  87.6818 0001887 126.1776 335.6619  1.00272184 33343
